OBJECT_NAME,OBJECT_ID,EPOCH,MEAN_MOTION,ECCENTRICITY,INCLINATION,RA_OF_ASC_NODE,ARG_OF_PERICENTER,MEAN_ANOMALY,EPHEMERIS_TYPE,CLASSIFICATION_TYPE,NORAD_CAT_ID,ELEMENT_SET_NO,REV_AT_EPOCH,BSTAR,MEAN_MOTION_DOT,MEAN_MOTION_DDOT,OBJECT_TYPE
ISTSAT-1,2024-128D,2026-03-21T05:43:14.433600,15.10415137,.00480503,61.9883,156.8278,113.7798,246.8346,0,U,60238,999,9317,.44511234E-3,.7335E-4,0,Active
OOV-CUBE (TUBSAT-30),2024-128F,2026-03-20T13:05:25.783584,15.02324572,.00536323,61.9953,174.5605,114.5780,246.0913,0,U,60240,999,9279,.20246817E-3,.2556E-4,0,Active
CURIUM ONE,2024-128H,2026-03-20T22:29:34.073952,15.11063502,.00498229,61.9789,158.0025,112.6457,247.9918,0,U,60242,999,9311,.43987605E-3,.7396E-4,0,Active
ROBUSTA-3A (MEDITERRANEE),2024-128J,2026-03-20T12:33:34.927488,15.10286487,.00509249,61.9866,161.4614,110.0466,250.6121,0,U,60243,999,9302,.45417085E-3,.7487E-4,0,Active
CATSAT,2024-125J,2026-03-21T05:59:17.905056,15.49745519,.00278459,97.2180,292.1517,145.8913,214.4135,0,U,60246,999,9373,.10484386E-2,.59404E-3,0,Active
GAOFEN-11 05,2024-130A,2026-03-19T03:15:52.922016,15.23913111,.00075303,97.4046,157.6670,75.1901,285.0170,0,U,60249,999,7175,.23362113E-3,.5577E-4,0,Active
STARLINK-32138,2024-131A,2026-03-20T23:14:45.609216,15.30204211,.00011859,53.1634,0.1727,83.3507,276.7629,0,U,60255,999,9374,.20000193E-3,.557E-4,0,Active
STARLINK-32212,2024-131B,2026-03-21T01:07:02.879040,15.30205713,.00012835,53.1616,359.9599,86.2956,273.8192,0,U,60256,999,9345,.1801815E-3,.4982E-4,0,Active
STARLINK-32166,2024-131C,2026-03-21T01:16:09.423840,15.30202186,.00012406,53.1622,359.9847,71.5372,288.5764,0,U,60257,999,9345,.43407637E-4,.927E-5,0,Active
STARLINK-32200,2024-131D,2026-03-21T01:04:00.327936,15.30207982,.00012779,53.1616,359.9348,85.9173,274.1974,0,U,60258,999,9345,.19813065E-3,.5515E-4,0,Active
STARLINK-32207,2024-131E,2026-03-20T12:28:32.776320,15.30193318,.00012853,53.1626,2.3598,102.3277,257.7868,0,U,60259,999,9337,.34028796E-4,.649E-5,0,Active
STARLINK-32125,2024-131F,2026-03-20T23:48:01.211616,15.30202874,.00011815,53.1620,359.6094,72.8999,287.2131,0,U,60260,999,9345,.69804591E-4,.1709E-4,0,Active
STARLINK-32160,2024-131G,2026-03-21T01:08:34.658304,15.30189582,.00012497,53.1620,359.9484,87.7661,272.3483,0,U,60261,999,9350,.17604448E-4,.162E-5,0,Active
STARLINK-32163,2024-131H,2026-03-21T00:21:27.208800,15.30199767,.00011835,53.1611,359.7474,88.5488,271.5649,0,U,60262,999,9345,.56749015E-4,.1322E-4,0,Active
STARLINK-32148,2024-131J,2026-03-21T02:09:11.271456,15.30194039,.00012672,53.1619,359.5013,99.0539,261.0606,0,U,60263,999,9351,.38583924E-4,.784E-5,0,Active
STARLINK-32121,2024-131K,2026-03-21T05:21:48.883680,15.30225769,.00010503,53.1609,358.9201,86.2742,273.8379,0,U,60264,999,9353,.19962675E-4,.233E-5,0,Active
STARLINK-32120,2024-131L,2026-03-21T01:09:48.261600,15.31309057,.00014392,53.1611,359.9548,118.2865,241.8282,0,U,60265,999,9350,.16007147E-2,.4903E-3,0,Active
STARLINK-32205,2024-131M,2026-03-21T00:57:55.643040,15.30195838,.00012259,53.1613,359.9187,86.9089,273.2052,0,U,60266,999,9345,.40558719E-4,.842E-5,0,Active
STARLINK-32158,2024-131N,2026-03-21T01:44:51.222912,15.30255665,.00012789,53.1620,359.3974,88.6002,271.5146,0,U,60267,999,9336,-.26313574E-3,-.8158E-4,0,Active
STARLINK-32167,2024-131P,2026-03-21T01:23:34.941984,15.30216148,.00012299,53.1624,359.3207,78.5251,281.5888,0,U,60268,999,9346,.92258465E-4,.2375E-4,0,Active
STARLINK-32144,2024-131Q,2026-03-21T02:04:37.020576,15.30190580,.0001132,53.1612,359.4836,104.4202,255.6925,0,U,60269,999,9351,.10456576E-3,.2738E-4,0,Active
STARLINK-32211,2024-131R,2026-03-20T23:37:33.566592,15.30184135,.00015583,53.1628,0.2787,92.5813,267.5366,0,U,60270,999,9344,-.20001649E-4,-.951E-5,0,Active
STARLINK-32164,2024-131S,2026-03-20T22:09:33.714432,15.30206108,.00012979,53.1619,0.5965,81.8879,278.2269,0,U,60271,999,9333,.90629695E-4,.2326E-4,0,Active
STARLINK-32128,2024-131T,2026-03-21T01:40:18.956640,15.30191146,.00013781,53.1611,359.3816,61.0270,299.0869,0,U,60272,999,9346,.33257924E-4,.626E-5,0,Active
STARLINK-32206,2024-131U,2026-03-20T04:39:48.046176,15.30192196,.00012346,53.1619,3.8805,78.5552,281.5587,0,U,60273,999,9332,.30459499E-4,.543E-5,0,Active
STARLINK-32155,2024-131V,2026-03-21T00:53:22.157664,15.30209582,.00013254,53.1622,359.8887,87.5060,272.6093,0,U,60274,999,9335,.23095309E-3,.6489E-4,0,Active
STARLINK-32152,2024-131W,2026-03-21T00:01:41.527776,15.30214982,.00010986,53.1617,359.6610,91.9143,268.1983,0,U,60275,999,9335,-.33060841E-4,-.1339E-4,0,Active
STARLINK-32154,2024-131X,2026-03-21T01:26:37.163040,15.30208567,.00011464,53.1617,359.3166,82.2714,277.8417,0,U,60276,999,9346,.10637933E-3,.2794E-4,0,Active
STARLINK-32135,2024-131Y,2026-03-21T00:16:52.009248,15.30259947,.00013547,53.1598,359.7242,83.9603,276.1552,0,U,60277,999,9345,.11969023E-2,.35324E-3,0,Active
