ISTSAT-1                
1 60238U 24128D   26080.23836150  .00007335  00000+0  44511-3 0  9995
2 60238  61.9883 156.8278 0048050 113.7798 246.8346 15.10415137 93177
OOV-CUBE (TUBSAT-30)    
1 60240U 24128F   26079.54543731  .00002556  00000+0  20247-3 0  9990
2 60240  61.9953 174.5605 0053632 114.5780 246.0913 15.02324572 92793
CURIUM ONE              
1 60242U 24128H   26079.93719993  .00007396  00000+0  43988-3 0  9994
2 60242  61.9789 158.0025 0049822 112.6457 247.9918 15.11063502 93116
ROBUSTA-3A (MEDITERRAN*)
1 60243U 24128J   26079.52332092  .00007487  00000+0  45417-3 0  9991
2 60243  61.9866 161.4614 0050924 110.0466 250.6121 15.10286487 93027
CATSAT                  
1 60246U 24125J   26080.24951279  .00059404  00000+0  10484-2 0  9997
2 60246  97.2180 292.1517 0027845 145.8913 214.4135 15.49745519 93733
GAOFEN-11 05            
1 60249U 24130A   26078.13602919  .00005577  00000+0  23362-3 0  9997
2 60249  97.4046 157.6670 0007530  75.1901 285.0170 15.23913111 71753
STARLINK-32138          
1 60255U 24131A   26079.96858344  .00005570  00000+0  20000-3 0  9991
2 60255  53.1634   0.1727 0001185  83.3507 276.7629 15.30204211 93741
STARLINK-32212          
1 60256U 24131B   26080.04656110  .00004982  00000+0  18018-3 0  9992
2 60256  53.1616 359.9599 0001283  86.2956 273.8192 15.30205713 93452
STARLINK-32166          
1 60257U 24131C   26080.05288685  .00000927  00000+0  43408-4 0  9999
2 60257  53.1622 359.9847 0001240  71.5372 288.5764 15.30202186 93457
STARLINK-32200          
1 60258U 24131D   26080.04444824  .00005515  00000+0  19813-3 0  9998
2 60258  53.1616 359.9348 0001277  85.9173 274.1974 15.30207982 93458
STARLINK-32207          
1 60259U 24131E   26079.51982380  .00000649  00000+0  34029-4 0  9993
2 60259  53.1626   2.3598 0001285 102.3277 257.7868 15.30193318 93371
STARLINK-32125          
1 60260U 24131F   26079.99168069  .00001709  00000+0  69805-4 0  9995
2 60260  53.1620 359.6094 0001181  72.8999 287.2131 15.30202874 93451
STARLINK-32160          
1 60261U 24131G   26080.04762336  .00000162  00000+0  17604-4 0  9993
2 60261  53.1620 359.9484 0001249  87.7661 272.3483 15.30189582 93505
STARLINK-32163          
1 60262U 24131H   26080.01489825  .00001322  00000+0  56749-4 0  9992
2 60262  53.1611 359.7474 0001183  88.5488 271.5649 15.30199767 93451
STARLINK-32148          
1 60263U 24131J   26080.08971379  .00000784  00000+0  38584-4 0  9998
2 60263  53.1619 359.5013 0001267  99.0539 261.0606 15.30194039 93515
STARLINK-32121          
1 60264U 24131K   26080.22348245  .00000233  00000+0  19963-4 0  9994
2 60264  53.1609 358.9201 0001050  86.2742 273.8379 15.30225769 93536
STARLINK-32120          
1 60265U 24131L   26080.04847525  .00049030  00000+0  16007-2 0  9992
2 60265  53.1611 359.9548 0001439 118.2865 241.8282 15.31309057 93507
STARLINK-32205          
1 60266U 24131M   26080.04022735  .00000842  00000+0  40559-4 0  9990
2 60266  53.1613 359.9187 0001225  86.9089 273.2052 15.30195838 93458
STARLINK-32158          
1 60267U 24131N   26080.07281508 -.00008158  00000+0 -26314-3 0  9991
2 60267  53.1620 359.3974 0001278  88.6002 271.5146 15.30255665 93367
STARLINK-32167          
1 60268U 24131P   26080.05804331  .00002375  00000+0  92258-4 0  9999
2 60268  53.1624 359.3207 0001229  78.5251 281.5888 15.30216148 93469
STARLINK-32144          
1 60269U 24131Q   26080.08653959  .00002738  00000+0  10457-3 0  9994
2 60269  53.1612 359.4836 0001132 104.4202 255.6925 15.30190580 93515
STARLINK-32211          
1 60270U 24131R   26079.98441628 -.00000951  00000+0 -20002-4 0  9996
2 60270  53.1628   0.2787 0001558  92.5813 267.5366 15.30184135 93449
STARLINK-32164          
1 60271U 24131S   26079.92330688  .00002326  00000+0  90630-4 0  9994
2 60271  53.1619   0.5965 0001297  81.8879 278.2269 15.30206108 93338
STARLINK-32128          
1 60272U 24131T   26080.06966385  .00000626  00000+0  33258-4 0  9995
2 60272  53.1611 359.3816 0001378  61.0270 299.0869 15.30191146 93462
STARLINK-32206          
1 60273U 24131U   26079.19430609  .00000543  00000+0  30459-4 0  9991
2 60273  53.1619   3.8805 0001234  78.5552 281.5587 15.30192196 93321
STARLINK-32155          
1 60274U 24131V   26080.03706201  .00006489  00000+0  23095-3 0  9993
2 60274  53.1622 359.8887 0001325  87.5060 272.6093 15.30209582 93359
STARLINK-32152          
1 60275U 24131W   26080.00117509 -.00001339  00000+0 -33061-4 0  9994
2 60275  53.1617 359.6610 0001098  91.9143 268.1983 15.30214982 93352
STARLINK-32154          
1 60276U 24131X   26080.06015235  .00002794  00000+0  10638-3 0  9992
2 60276  53.1617 359.3166 0001146  82.2714 277.8417 15.30208567 93460
STARLINK-32135          
1 60277U 24131Y   26080.01171307  .00035324  00000+0  11969-2 0  9993
2 60277  53.1598 359.7242 0001354  83.9603 276.1552 15.30259947 93453
